[{"OBJECT_NAME":"ONEWEB-0398","OBJECT_ID":"2021-132K","EPOCH":"2025-12-14T06:25:34.602240","MEAN_MOTION":13.11415204,"ECCENTRICITY":0.00012798,"INCLINATION":87.8865,"RA_OF_ASC_NODE":57.8729,"ARG_OF_PERICENTER":100.4953,"MEAN_ANOMALY":259.6319,"EPHEMERIS_TYPE":0,"CLASSIFICATION_TYPE":"U","NORAD_CAT_ID":50478,"ELEMENT_SET_NO":999,"REV_AT_EPOCH":19137,"BSTAR":0.0012966526,"MEAN_MOTION_DOT":4.72e-6,"MEAN_MOTION_DDOT":0},{"OBJECT_NAME":"ONEWEB-0399","OBJECT_ID":"2021-132L","EPOCH":"2025-12-14T06:06:01.082016","MEAN_MOTION":13.11414356,"ECCENTRICITY":0.00027092,"INCLINATION":87.886,"RA_OF_ASC_NODE":57.8895,"ARG_OF_PERICENTER":125.0205,"MEAN_ANOMALY":235.1177,"EPHEMERIS_TYPE":0,"CLASSIFICATION_TYPE":"U","NORAD_CAT_ID":50479,"ELEMENT_SET_NO":999,"REV_AT_EPOCH":19136,"BSTAR":0.004247782,"MEAN_MOTION_DOT":1.518e-5,"MEAN_MOTION_DDOT":0},{"OBJECT_NAME":"ONEWEB-0400","OBJECT_ID":"2021-132M","EPOCH":"2025-12-14T07:48:31.875552","MEAN_MOTION":13.18686523,"ECCENTRICITY":0.00015902,"INCLINATION":87.9182,"RA_OF_ASC_NODE":12.1553,"ARG_OF_PERICENTER":91.6006,"MEAN_ANOMALY":268.5309,"EPHEMERIS_TYPE":0,"CLASSIFICATION_TYPE":"U","NORAD_CAT_ID":50480,"ELEMENT_SET_NO":999,"REV_AT_EPOCH":19724,"BSTAR":8.8772123e-5,"MEAN_MOTION_DOT":4.8e-7,"MEAN_MOTION_DDOT":0},{"OBJECT_NAME":"ONEWEB-0401","OBJECT_ID":"2021-132N","EPOCH":"2025-12-14T01:35:37.436064","MEAN_MOTION":13.18685779,"ECCENTRICITY":0.00019697,"INCLINATION":87.918,"RA_OF_ASC_NODE":12.2036,"ARG_OF_PERICENTER":93.4003,"MEAN_ANOMALY":266.7354,"EPHEMERIS_TYPE":0,"CLASSIFICATION_TYPE":"U","NORAD_CAT_ID":50481,"ELEMENT_SET_NO":999,"REV_AT_EPOCH":19721,"BSTAR":-6.0013439e-5,"MEAN_MOTION_DOT":-1.1e-7,"MEAN_MOTION_DDOT":0},{"OBJECT_NAME":"ONEWEB-0402","OBJECT_ID":"2021-132P","EPOCH":"2025-12-14T08:00:25.090272","MEAN_MOTION":13.18685709,"ECCENTRICITY":0.00023798,"INCLINATION":87.918,"RA_OF_ASC_NODE":12.1428,"ARG_OF_PERICENTER":91.5752,"MEAN_ANOMALY":268.5652,"EPHEMERIS_TYPE":0,"CLASSIFICATION_TYPE":"U","NORAD_CAT_ID":50482,"ELEMENT_SET_NO":999,"REV_AT_EPOCH":19727,"BSTAR":-7.2134059e-5,"MEAN_MOTION_DOT":-1.6e-7,"MEAN_MOTION_DDOT":0},{"OBJECT_NAME":"ONEWEB-0403","OBJECT_ID":"2021-132Q","EPOCH":"2025-12-14T08:36:02.566656","MEAN_MOTION":13.18685834,"ECCENTRICITY":0.0001725,"INCLINATION":87.9181,"RA_OF_ASC_NODE":12.1595,"ARG_OF_PERICENTER":97.2442,"MEAN_ANOMALY":262.8887,"EPHEMERIS_TYPE":0,"CLASSIFICATION_TYPE":"U","NORAD_CAT_ID":50483,"ELEMENT_SET_NO":999,"REV_AT_EPOCH":19723,"BSTAR":0.00010668998,"MEAN_MOTION_DOT":5.5e-7,"MEAN_MOTION_DDOT":0},{"OBJECT_NAME":"ONEWEB-0404","OBJECT_ID":"2021-132R","EPOCH":"2025-12-14T03:49:16.068000","MEAN_MOTION":13.11416893,"ECCENTRICITY":0.00016321,"INCLINATION":87.8862,"RA_OF_ASC_NODE":57.9179,"ARG_OF_PERICENTER":116.6016,"MEAN_ANOMALY":243.5279,"EPHEMERIS_TYPE":0,"CLASSIFICATION_TYPE":"U","NORAD_CAT_ID":50484,"ELEMENT_SET_NO":999,"REV_AT_EPOCH":19144,"BSTAR":-0.0020877654,"MEAN_MOTION_DOT":-7.27e-6,"MEAN_MOTION_DDOT":0},{"OBJECT_NAME":"ONEWEB-0405","OBJECT_ID":"2021-132S","EPOCH":"2025-12-14T01:40:22.286496","MEAN_MOTION":13.18685527,"ECCENTRICITY":0.00020544,"INCLINATION":87.9182,"RA_OF_ASC_NODE":12.2009,"ARG_OF_PERICENTER":97.232,"MEAN_ANOMALY":262.9046,"EPHEMERIS_TYPE":0,"CLASSIFICATION_TYPE":"U","NORAD_CAT_ID":50485,"ELEMENT_SET_NO":999,"REV_AT_EPOCH":19759,"BSTAR":3.4307835e-5,"MEAN_MOTION_DOT":2.6e-7,"MEAN_MOTION_DDOT":0},{"OBJECT_NAME":"ONEWEB-0406","OBJECT_ID":"2021-132T","EPOCH":"2025-12-14T03:15:22.998240","MEAN_MOTION":13.18685729,"ECCENTRICITY":0.00013323,"INCLINATION":87.9184,"RA_OF_ASC_NODE":12.2128,"ARG_OF_PERICENTER":106.0403,"MEAN_ANOMALY":254.0876,"EPHEMERIS_TYPE":0,"CLASSIFICATION_TYPE":"U","NORAD_CAT_ID":50486,"ELEMENT_SET_NO":999,"REV_AT_EPOCH":19723,"BSTAR":-0.0001638188,"MEAN_MOTION_DOT":-5.2e-7,"MEAN_MOTION_DDOT":0},{"OBJECT_NAME":"ONEWEB-0407","OBJECT_ID":"2021-132U","EPOCH":"2025-12-14T08:33:39.833856","MEAN_MOTION":13.18686277,"ECCENTRICITY":0.0001872,"INCLINATION":87.9182,"RA_OF_ASC_NODE":12.1525,"ARG_OF_PERICENTER":89.6445,"MEAN_ANOMALY":270.4902,"EPHEMERIS_TYPE":0,"CLASSIFICATION_TYPE":"U","NORAD_CAT_ID":50487,"ELEMENT_SET_NO":999,"REV_AT_EPOCH":19720,"BSTAR":0.00011744369,"MEAN_MOTION_DOT":5.9e-7,"MEAN_MOTION_DDOT":0},{"OBJECT_NAME":"ONEWEB-0409","OBJECT_ID":"2021-132V","EPOCH":"2025-12-14T03:46:49.195776","MEAN_MOTION":13.11417528,"ECCENTRICITY":0.00014942,"INCLINATION":87.8879,"RA_OF_ASC_NODE":57.887,"ARG_OF_PERICENTER":113.5701,"MEAN_ANOMALY":246.5584,"EPHEMERIS_TYPE":0,"CLASSIFICATION_TYPE":"U","NORAD_CAT_ID":50488,"ELEMENT_SET_NO":999,"REV_AT_EPOCH":19133,"BSTAR":-0.002620719,"MEAN_MOTION_DOT":-9.16e-6,"MEAN_MOTION_DDOT":0},{"OBJECT_NAME":"ONEWEB-0412","OBJECT_ID":"2021-132W","EPOCH":"2025-12-14T08:17:02.014944","MEAN_MOTION":13.18686354,"ECCENTRICITY":0.00021238,"INCLINATION":87.9184,"RA_OF_ASC_NODE":12.1678,"ARG_OF_PERICENTER":94.3025,"MEAN_ANOMALY":265.835,"EPHEMERIS_TYPE":0,"CLASSIFICATION_TYPE":"U","NORAD_CAT_ID":50489,"ELEMENT_SET_NO":999,"REV_AT_EPOCH":19729,"BSTAR":7.7729324e-5,"MEAN_MOTION_DOT":4.4e-7,"MEAN_MOTION_DDOT":0},{"OBJECT_NAME":"ONEWEB-0413","OBJECT_ID":"2021-132X","EPOCH":"2025-12-14T08:24:09.366624","MEAN_MOTION":13.18684304,"ECCENTRICITY":0.00020813,"INCLINATION":87.9173,"RA_OF_ASC_NODE":12.1793,"ARG_OF_PERICENTER":89.9174,"MEAN_ANOMALY":270.2196,"EPHEMERIS_TYPE":0,"CLASSIFICATION_TYPE":"U","NORAD_CAT_ID":50490,"ELEMENT_SET_NO":999,"REV_AT_EPOCH":19723,"BSTAR":3.2609296e-5,"MEAN_MOTION_DOT":2.6e-7,"MEAN_MOTION_DDOT":0},{"OBJECT_NAME":"ONEWEB-0414","OBJECT_ID":"2021-132Y","EPOCH":"2025-12-14T08:02:47.108544","MEAN_MOTION":13.18685934,"ECCENTRICITY":0.00019356,"INCLINATION":87.9183,"RA_OF_ASC_NODE":12.1457,"ARG_OF_PERICENTER":98.3205,"MEAN_ANOMALY":261.8147,"EPHEMERIS_TYPE":0,"CLASSIFICATION_TYPE":"U","NORAD_CAT_ID":50491,"ELEMENT_SET_NO":999,"REV_AT_EPOCH":19726,"BSTAR":-0.00022722721,"MEAN_MOTION_DOT":-7.7e-7,"MEAN_MOTION_DDOT":0},{"OBJECT_NAME":"ONEWEB-0417","OBJECT_ID":"2021-132Z","EPOCH":"2025-12-14T08:14:39.846336","MEAN_MOTION":13.18685462,"ECCENTRICITY":0.00016494,"INCLINATION":87.9186,"RA_OF_ASC_NODE":12.1782,"ARG_OF_PERICENTER":100.4779,"MEAN_ANOMALY":259.654,"EPHEMERIS_TYPE":0,"CLASSIFICATION_TYPE":"U","NORAD_CAT_ID":50492,"ELEMENT_SET_NO":999,"REV_AT_EPOCH":19724,"BSTAR":-3.4579762e-5,"MEAN_MOTION_DOT":-1.0e-8,"MEAN_MOTION_DDOT":0},{"OBJECT_NAME":"ONEWEB-0418","OBJECT_ID":"2021-132AA","EPOCH":"2025-12-14T08:28:42.513312","MEAN_MOTION":13.18685648,"ECCENTRICITY":0.00015399,"INCLINATION":87.9182,"RA_OF_ASC_NODE":12.1605,"ARG_OF_PERICENTER":109.1386,"MEAN_ANOMALY":250.9913,"EPHEMERIS_TYPE":0,"CLASSIFICATION_TYPE":"U","NORAD_CAT_ID":50493,"ELEMENT_SET_NO":999,"REV_AT_EPOCH":19730,"BSTAR":7.9681239e-5,"MEAN_MOTION_DOT":4.4e-7,"MEAN_MOTION_DDOT":0},{"OBJECT_NAME":"ONEWEB-0419","OBJECT_ID":"2021-132AB","EPOCH":"2025-12-14T01:37:59.612448","MEAN_MOTION":13.18686452,"ECCENTRICITY":0.0001445,"INCLINATION":87.9181,"RA_OF_ASC_NODE":12.2173,"ARG_OF_PERICENTER":96.2745,"MEAN_ANOMALY":263.8552,"EPHEMERIS_TYPE":0,"CLASSIFICATION_TYPE":"U","NORAD_CAT_ID":50494,"ELEMENT_SET_NO":999,"REV_AT_EPOCH":19718,"BSTAR":7.5232397e-5,"MEAN_MOTION_DOT":4.3e-7,"MEAN_MOTION_DDOT":0}]
