ONEWEB-0398             
1 50478U 21132K   25348.26776160  .00000472  00000+0  12967-2 0  9999
2 50478  87.8865  57.8729 0001279 100.4953 259.6319 13.11415204191375
ONEWEB-0399             
1 50479U 21132L   25348.25417919  .00001518  00000+0  42478-2 0  9995
2 50479  87.8860  57.8895 0002709 125.0205 235.1177 13.11414356191364
ONEWEB-0400             
1 50480U 21132M   25348.32536893  .00000048  00000+0  88772-4 0  9994
2 50480  87.9182  12.1553 0001590  91.6006 268.5309 13.18686523197247
ONEWEB-0401             
1 50481U 21132N   25348.06640551 -.00000011  00000+0 -60013-4 0  9993
2 50481  87.9180  12.2036 0001969  93.4003 266.7354 13.18685779197219
ONEWEB-0402             
1 50482U 21132P   25348.33362373 -.00000016  00000+0 -72134-4 0  9999
2 50482  87.9180  12.1428 0002379  91.5752 268.5652 13.18685709197270
ONEWEB-0403             
1 50483U 21132Q   25348.35836304  .00000055  00000+0  10669-3 0  9997
2 50483  87.9181  12.1595 0001725  97.2442 262.8887 13.18685834197232
ONEWEB-0404             
1 50484U 21132R   25348.15921375 -.00000727  00000+0 -20878-2 0  9999
2 50484  87.8862  57.9179 0001632 116.6016 243.5279 13.11416893191441
ONEWEB-0405             
1 50485U 21132S   25348.06970239  .00000026  00000+0  34308-4 0  9998
2 50485  87.9182  12.2009 0002054  97.2320 262.9046 13.18685527197593
ONEWEB-0406             
1 50486U 21132T   25348.13568285 -.00000052  00000+0 -16382-3 0  9993
2 50486  87.9184  12.2128 0001332 106.0403 254.0876 13.18685729197235
ONEWEB-0407             
1 50487U 21132U   25348.35671104  .00000059  00000+0  11744-3 0  9995
2 50487  87.9182  12.1525 0001872  89.6445 270.4902 13.18686277197203
ONEWEB-0409             
1 50488U 21132V   25348.15751384 -.00000916  00000+0 -26207-2 0  9996
2 50488  87.8879  57.8870 0001494 113.5701 246.5584 13.11417528191339
ONEWEB-0412             
1 50489U 21132W   25348.34516221  .00000044  00000+0  77729-4 0  9994
2 50489  87.9184  12.1678 0002123  94.3025 265.8350 13.18686354197293
ONEWEB-0413             
1 50490U 21132X   25348.35010841  .00000026  00000+0  32609-4 0  9992
2 50490  87.9173  12.1793 0002081  89.9174 270.2196 13.18684304197234
ONEWEB-0414             
1 50491U 21132Y   25348.33526746 -.00000077  00000+0 -22723-3 0  9990
2 50491  87.9183  12.1457 0001935  98.3205 261.8147 13.18685934197264
ONEWEB-0417             
1 50492U 21132Z   25348.34351674 -.00000001  00000+0 -34580-4 0  9990
2 50492  87.9186  12.1782 0001649 100.4779 259.6540 13.18685462197248
ONEWEB-0418             
1 50493U 21132AA  25348.35326983  .00000044  00000+0  79681-4 0  9993
2 50493  87.9182  12.1605 0001539 109.1386 250.9913 13.18685648197308
ONEWEB-0419             
1 50494U 21132AB  25348.06805107  .00000043  00000+0  75232-4 0  9999
2 50494  87.9181  12.2173 0001445  96.2745 263.8552 13.18686452197182
